{"fetched_at":"2026-03-29T16:36:15Z","count":15609,"tles":[{"name":"STARLINK-35649","line1":"1 66125U 25237M   26087.88263269  .00025940  00000+0  88474-3 0  9999","line2":"2 66125  53.1596 310.1467 0001321 100.1445 259.9705 15.30205115 25552","category":"Starlink"}]}